H1 CPF 01  gfz 2022 05 24 00  6441 terrasarx 
H2 0702601  6201 31698    2022 05 24 00 59 42 2022 05 29 00 00 42   120 1 1  0 0 0
H9
10 0 59725  46062.000000  0   -1586327.663  -6352611.408  -2151058.148
10 0 59725  46182.000000  0   -1677151.686  -5980290.266  -2988769.633
10 0 59725  46302.000000  0   -1731307.357  -5502476.663  -3774023.527
10 0 59725  46422.000000  0   -1746115.568  -4928263.086  -4493105.847
10 0 59725  46542.000000  0   -1719758.592  -4268443.305  -5133493.060
10 0 59725  46662.000000  0   -1651335.801  -3535299.149  -5684063.475
10 0 59725  46782.000000  0   -1540899.465  -2742364.076  -6135281.643
10 0 59725  46902.000000  0   -1389469.959  -1904167.782  -6479353.250
10 0 59725  47022.000000  0   -1199030.642  -1035967.882  -6710347.874
10 0 59725  47142.000000  0    -972503.317   -153474.277  -6824290.641
10 0 59725  47262.000000  0    -713703.974    727430.228  -6819222.693
10 0 59725  47382.000000  0    -427279.029   1590968.421  -6695230.692
10 0 59725  47502.000000  0    -118624.540   2421743.754  -6454445.366
10 0 59725  47622.000000  0     206211.538   3205008.818  -6101010.524
10 0 59725  47742.000000  0     540644.476   3926924.926  -5641020.037
10 0 59725  47862.000000  0     877681.511   4574806.045  -5082422.081
10 0 59725  47982.000000  0    1210062.583   5137345.324  -4434893.854
10 0 59725  48102.000000  0    1530411.666   5604820.363  -3709684.524
10 0 59725  48222.000000  0    1831395.134   5969270.770  -2919428.261
10 0 59725  48342.000000  0    2105883.772   6224645.336  -2077930.460
10 0 59725  48462.000000  0    2347115.207   6366914.933  -1199928.685
10 0 59725  48582.000000  0    2548852.362   6394146.222   -300832.064
10 0 59725  48702.000000  0    2705533.668   6306533.332    603554.671
10 0 59725  48822.000000  0    2812411.030   6106386.905   1497316.009
10 0 59725  48942.000000  0    2865671.964   5798081.145   2364713.792
10 0 59725  49062.000000  0    2862543.116   5387959.593   3190472.491
10 0 59725  49182.000000  0    2801372.613   4884201.674   3960055.562
10 0 59725  49302.000000  0    2681688.945   4296654.386   4659927.383
10 0 59725  49422.000000  0    2504232.480   3636630.057   5277795.307
10 0 59725  49542.000000  0    2270961.563   2916679.075   5802822.162
10 0 59725  49662.000000  0    1985035.599   2150345.361   6225811.621
10 0 59725  49782.000000  0    1650772.601   1351906.469   6539365.251
10 0 59725  49902.000000  0    1273582.227    536103.126   6738005.371
10 0 59725  50022.000000  0     859876.902   -282133.245   6818263.715
10 0 59725  50142.000000  0     416962.553  -1087952.546   6778739.605
10 0 59725  50262.000000  0     -47090.666  -1866855.907   6620123.436
10 0 59725  50382.000000  0    -523595.547  -2604956.414   6345185.009
10 0 59725  50502.000000  0   -1003409.750  -3289227.467   5958726.881
10 0 59725  50622.000000  0   -1477108.334  -3907733.130   5467504.081
10 0 59725  50742.000000  0   -1935167.056  -4449839.273   4880114.076
10 0 59725  50862.000000  0   -2368154.555  -4906403.296   4206854.225
10 0 59725  50982.000000  0   -2766928.338  -5269937.261   3459545.894
10 0 59725  51102.000000  0   -3122828.463  -5534738.549   2651327.236
10 0 59725  51222.000000  0   -3427864.670  -5696984.973   1796420.979
10 0 59725  51342.000000  0   -3674893.618  -5754793.829    909880.684
10 0 59725  51462.000000  0   -3857781.654  -5708242.175      7319.476
10 0 59725  51582.000000  0   -3971548.761  -5559347.761   -895372.817
10 0 59725  51702.000000  0   -4012489.720  -5312010.480  -1782318.889
10 0 59725  51822.000000  0   -3978269.052  -4971915.016  -2637942.045
10 0 59725  51942.000000  0   -3867987.443  -4546398.098  -3447246.238
10 0 59725  52062.000000  0   -3682218.086  -4044284.745  -4196081.669
10 0 59725  52182.000000  0   -3423013.239  -3475698.875  -4871390.845
10 0 59725  52302.000000  0   -3093881.565  -2851852.893  -5461431.671
10 0 59725  52422.000000  0   -2699737.189  -2184821.268  -5955973.408
10 0 59725  52542.000000  0   -2246822.387  -1487304.044  -6346464.202
10 0 59725  52662.000000  0   -1742604.588   -772383.956  -6626168.235
10 0 59725  52782.000000  0   -1195650.927    -53282.652  -6790269.826
10 0 59725  52902.000000  0    -615483.951    656878.825  -6835946.186
10 0 59725  53022.000000  0     -12418.833   1345313.236  -6762411.006
10 0 59725  53142.000000  0     602614.898   1999791.142  -6570926.280
10 0 59725  53262.000000  0    1218266.261   2608853.439  -6264785.420
10 0 59725  53382.000000  0    1822968.537   3162009.697  -5849262.651
10 0 59725  53502.000000  0    2405152.395   3649918.697  -5331530.867
10 0 59725  53622.000000  0    2953464.660   4064547.727  -4720548.782
10 0 59725  53742.000000  0    3456989.033   4399310.197  -4026917.657
10 0 59725  53862.000000  0    3905465.003   4649177.445  -3262707.285
10 0 59725  53982.000000  0    4289500.493   4810761.446  -2441252.914
10 0 59725  54102.000000  0    4600771.618   4882365.405  -1576925.699
10 0 59725  54222.000000  0    4832206.307   4864002.599   -684881.989
10 0 59725  54342.000000  0    4978146.245   4757379.717    219207.154
10 0 59725  54462.000000  0    5034480.220   4565845.640   1119437.478
10 0 59725  54582.000000  0    4998748.763   4294308.470   1999958.202
10 0 59725  54702.000000  0    4870217.310   3949120.719   2845260.347
10 0 59725  54822.000000  0    4649912.456   3537934.284   3640459.194
10 0 59725  54942.000000  0    4340621.338   3069530.792   4371562.535
10 0 59725  55062.000000  0    3946856.475   2553631.953   5025719.437
10 0 59725  55182.000000  0    3474785.964   2000694.829   5591447.794
10 0 59725  55302.000000  0    2932129.003   1421696.465   6058832.723
10 0 59725  55422.000000  0    2328024.103    827912.909   6419694.691
10 0 59725  55542.000000  0    1672870.727    230698.378   6667725.250
10 0 59725  55662.000000  0     978147.686   -358730.390   6798592.281
10 0 59725  55782.000000  0     256210.108   -929504.686   6810012.401
10 0 59725  55902.000000  0    -479930.952  -1471304.129   6701787.497
10 0 59725  56022.000000  0   -1216842.812  -1974543.032   6475807.306
10 0 59725  56142.000000  0   -1940914.984  -2430539.812   6136016.854
10 0 59725  56262.000000  0   -2638608.049  -2831666.539   5688352.626
10 0 59725  56382.000000  0   -3296708.091  -3171479.650   5140647.634
10 0 59725  56502.000000  0   -3902582.185  -3444827.280   4502499.793
10 0 59725  56622.000000  0   -4444425.231  -3647929.809   3785107.252
10 0 59725  56742.000000  0   -4911494.970  -3778433.162   3001075.044
10 0 59725  56862.000000  0   -5294330.996  -3835433.978   2164195.374
10 0 59725  56982.000000  0   -5584952.947  -3819475.940   1289202.497
10 0 59725  57102.000000  0   -5777030.685  -3732515.212    391507.397
10 0 59725  57222.000000  0   -5866023.047  -3577856.574   -513081.057
10 0 59725  57342.000000  0   -5849281.459  -3360062.193  -1408643.692
10 0 59725  57462.000000  0   -5726114.225  -3084834.022  -2279441.342
10 0 59725  57582.000000  0   -5497810.068  -2758873.766  -3110198.246
10 0 59725  57702.000000  0   -5167622.714  -2389725.305  -3886374.051
10 0 59725  57822.000000  0   -4740716.703  -1985602.937  -4594418.711
10 0 59725  57942.000000  0   -4224076.921  -1555210.612  -5222006.063
10 0 59725  58062.000000  0   -3626384.019  -1107555.838  -5758242.343
10 0 59725  58182.000000  0   -2957859.321   -651762.604  -6193845.560
10 0 59725  58302.000000  0   -2230083.766   -196887.880  -6521294.798
10 0 59725  58422.000000  0   -1455793.664    248254.595  -6734948.524
10 0 59725  58542.000000  0    -648658.296    675259.971  -6831130.545
10 0 59725  58662.000000  0     176956.781   1076286.684  -6808186.234
10 0 59725  58782.000000  0    1006238.416   1444196.137  -6666507.699
10 0 59725  58902.000000  0    1824185.451   1772676.702  -6408530.497
10 0 59725  59022.000000  0    2615874.939   2056351.123  -6038696.158
10 0 59725  59142.000000  0    3366730.588   2290864.125  -5563383.178
10 0 59725  59262.000000  0    4062788.156   2472949.445  -4990807.123
10 0 59725  59382.000000  0    4690956.838   2600476.125  -4330890.947
10 0 59725  59502.000000  0    5239270.769   2672472.208  -3595103.031
10 0 59725  59622.000000  0    5697123.541   2689124.976  -2796266.105
10 0 59725  59742.000000  0    6055483.252   2651758.094  -1948340.573
10 0 59725  59862.000000  0    6307081.313   2562784.732  -1066181.086
10 0 59725  59982.000000  0    6446568.430   2425637.402   -165274.337
10 0 59725  60102.000000  0    6470634.871   2244675.966    738539.240
10 0 59725  60222.000000  0    6378088.558   2025075.258   1629350.794
10 0 59725  60342.000000  0    6169894.289   1772697.762   2491470.936
10 0 59725  60462.000000  0    5849167.688   1493951.137   3309715.877
10 0 59725  60582.000000  0    5421125.468   1195636.027   4069682.161
10 0 59725  60702.000000  0    4892992.586    884787.814   4758005.011
10 0 59725  60822.000000  0    4273871.810    568517.261   5362593.978
10 0 59725  60942.000000  0    3574577.376    253852.321   5872845.058
10 0 59725  61062.000000  0    2807435.698    -52414.204   6279822.123
10 0 59725  61182.000000  0    1986061.691   -343866.841   6576406.496
10 0 59725  61302.000000  0    1125113.398   -614598.603   6757416.317
10 0 59725  61422.000000  0     240027.102   -859328.951   6819692.642
10 0 59725  61542.000000  0    -653260.558  -1073505.456   6762149.904
10 0 59725  61662.000000  0   -1538598.705  -1253388.341   6585792.861
10 0 59725  61782.000000  0   -2399912.754  -1396115.713   6293699.119
10 0 59725  61902.000000  0   -3221494.142  -1499748.281   5890969.244
10 0 59725  62022.000000  0   -3988288.829  -1563294.558   5384645.743
10 0 59725  62142.000000  0   -4686178.481  -1586716.393   4783595.976
10 0 59725  62262.000000  0   -5302247.381  -1570913.095   4098361.811
10 0 59725  62382.000000  0   -5825029.257  -1517684.231   3340977.585
10 0 59725  62502.000000  0   -6244728.747  -1429672.078   2524760.881
99
